{
  "type": "FeatureCollection",
  "features": [
    {
      "type": "Feature",
      "properties": {
        "norad_id": 40797,
        "name": "COSMOS 2251 DEB",
        "group": "cosmos-2251-debris",
        "lat": -68.36463105936622,
        "lon": 58.02658716500297,
        "alt_km": 542.4234053581376,
        "timestamp": "2025-12-08T05:48:09.432003+00:00",
        "meta_object_name": "COSMOS 2251 DEB",
        "meta_object_id": "1993-036BWA",
        "meta_epoch": "2025-11-19T18:43:16.602528",
        "meta_mean_motion": 15.10509474,
        "meta_eccentricity": 0.00703947,
        "meta_inclination": 73.92,
        "meta_ra_of_asc_node": 143.0892,
        "meta_arg_of_pericenter": 60.6639,
        "meta_mean_anomaly": 300.156,
        "meta_ephemeris_type": 0,
        "meta_classification_type": "U",
        "meta_norad_cat_id": 40797,
        "meta_element_set_no": 999,
        "meta_rev_at_epoch": 64297,
        "meta_bstar": 0.00072810385,
        "meta_mean_motion_dot": 0.00012707,
        "meta_mean_motion_ddot": 0,
        "tle_line1": "1 40797U 93036BWA 25323.78005327  .00012707  00000+0  72810-3 0  9992",
        "tle_line2": "2 40797  73.9200 143.0892 0070394  60.6639 300.1560 15.10509474642979"
      },
      "geometry": {
        "type": "Point",
        "coordinates": [
          58.02658716500297,
          -68.36463105936622
        ]
      }
    },
    {
      "type": "Feature",
      "properties": {
        "norad_id": 40799,
        "name": "COSMOS 2251 DEB",
        "group": "cosmos-2251-debris",
        "lat": 8.048427786878069,
        "lon": -74.81273219752211,
        "alt_km": 661.470897373456,
        "timestamp": "2025-12-08T05:48:09.432013+00:00",
        "meta_object_name": "COSMOS 2251 DEB",
        "meta_object_id": "1993-036BWC",
        "meta_epoch": "2025-12-03T15:56:34.043424",
        "meta_mean_motion": 14.96530915,
        "meta_eccentricity": 0.0118644,
        "meta_inclination": 73.9247,
        "meta_ra_of_asc_node": 116.8388,
        "meta_arg_of_pericenter": 0.7827,
        "meta_mean_anomaly": 359.3519,
        "meta_ephemeris_type": 0,
        "meta_classification_type": "U",
        "meta_norad_cat_id": 40799,
        "meta_element_set_no": 999,
        "meta_rev_at_epoch": 49841,
        "meta_bstar": 0.00050356325,
        "meta_mean_motion_dot": 6.569e-05,
        "meta_mean_motion_ddot": 0,
        "tle_line1": "1 40799U 93036BWC 25337.66428291  .00006569  00000+0  50356-3 0  9995",
        "tle_line2": "2 40799  73.9247 116.8388 0118644   0.7827 359.3519 14.96530915498410"
      },
      "geometry": {
        "type": "Point",
        "coordinates": [
          -74.81273219752211,
          8.048427786878069
        ]
      }
    },
    {
      "type": "Feature",
      "properties": {
        "norad_id": 40802,
        "name": "COSMOS 2251 DEB",
        "group": "cosmos-2251-debris",
        "lat": 13.275353958725855,
        "lon": -22.034912904504573,
        "alt_km": 641.7220347181892,
        "timestamp": "2025-12-08T05:48:09.432022+00:00",
        "meta_object_name": "COSMOS 2251 DEB",
        "meta_object_id": "1993-036BWF",
        "meta_epoch": "2025-12-07T04:40:18.782112",
        "meta_mean_motion": 14.77524625,
        "meta_eccentricity": 0.00633068,
        "meta_inclination": 74.039,
        "meta_ra_of_asc_node": 163.8903,
        "meta_arg_of_pericenter": 263.7276,
        "meta_mean_anomaly": 95.6686,
        "meta_ephemeris_type": 0,
        "meta_classification_type": "U",
        "meta_norad_cat_id": 40802,
        "meta_element_set_no": 999,
        "meta_rev_at_epoch": 64327,
        "meta_bstar": 0.0010813735,
        "meta_mean_motion_dot": 7.951e-05,
        "meta_mean_motion_ddot": 0,
        "tle_line1": "1 40802U 93036BWF 25341.19466183  .00007951  00000+0  10814-2 0  9995",
        "tle_line2": "2 40802  74.0390 163.8903 0063306 263.7276  95.6686 14.77524625643275"
      },
      "geometry": {
        "type": "Point",
        "coordinates": [
          -22.034912904504573,
          13.275353958725855
        ]
      }
    },
    {
      "type": "Feature",
      "properties": {
        "norad_id": 40803,
        "name": "COSMOS 2251 DEB",
        "group": "cosmos-2251-debris",
        "lat": 61.19963237882478,
        "lon": 91.81356747695031,
        "alt_km": 735.4672328927136,
        "timestamp": "2025-12-08T05:48:09.432032+00:00",
        "meta_object_name": "COSMOS 2251 DEB",
        "meta_object_id": "1993-036BWG",
        "meta_epoch": "2025-12-05T22:55:29.451072",
        "meta_mean_motion": 14.51792027,
        "meta_eccentricity": 0.00362816,
        "meta_inclination": 74.0122,
        "meta_ra_of_asc_node": 64.6912,
        "meta_arg_of_pericenter": 281.8159,
        "meta_mean_anomaly": 77.8934,
        "meta_ephemeris_type": 0,
        "meta_classification_type": "U",
        "meta_norad_cat_id": 40803,
        "meta_element_set_no": 999,
        "meta_rev_at_epoch": 58654,
        "meta_bstar": 0.00062935795,
        "meta_mean_motion_dot": 2.525e-05,
        "meta_mean_motion_ddot": 0,
        "tle_line1": "1 40803U 93036BWG 25339.95520198  .00002525  00000+0  62936-3 0  9999",
        "tle_line2": "2 40803  74.0122  64.6912 0036281 281.8159  77.8934 14.51792027586549"
      },
      "geometry": {
        "type": "Point",
        "coordinates": [
          91.81356747695031,
          61.19963237882478
        ]
      }
    },
    {
      "type": "Feature",
      "properties": {
        "norad_id": 40808,
        "name": "COSMOS 2251 DEB",
        "group": "cosmos-2251-debris",
        "lat": 73.906160622286,
        "lon": -123.16406654959226,
        "alt_km": 663.6734833468763,
        "timestamp": "2025-12-08T05:48:09.432042+00:00",
        "meta_object_name": "COSMOS 2251 DEB",
        "meta_object_id": "1993-036BWM",
        "meta_epoch": "2025-12-07T11:32:50.781984",
        "meta_mean_motion": 14.67333401,
        "meta_eccentricity": 0.00098053,
        "meta_inclination": 74.0406,
        "meta_ra_of_asc_node": 155.6207,
        "meta_arg_of_pericenter": 192.7953,
        "meta_mean_anomaly": 198.9627,
        "meta_ephemeris_type": 0,
        "meta_classification_type": "U",
        "meta_norad_cat_id": 40808,
        "meta_element_set_no": 999,
        "meta_rev_at_epoch": 63542,
        "meta_bstar": 0.0025472163,
        "meta_mean_motion_dot": 0.00014393,
        "meta_mean_motion_ddot": 0,
        "tle_line1": "1 40808U 93036BWM 25341.48114331  .00014393  00000+0  25472-2 0  9992",
        "tle_line2": "2 40808  74.0406 155.6207 0009805 192.7953 198.9627 14.67333401635421"
      },
      "geometry": {
        "type": "Point",
        "coordinates": [
          -123.16406654959226,
          73.906160622286
        ]
      }
    },
    {
      "type": "Feature",
      "properties": {
        "norad_id": 40810,
        "name": "COSMOS 2251 DEB",
        "group": "cosmos-2251-debris",
        "lat": 32.372138121249804,
        "lon": -107.15040883936464,
        "alt_km": 694.7109288646616,
        "timestamp": "2025-12-08T05:48:09.432052+00:00",
        "meta_object_name": "COSMOS 2251 DEB",
        "meta_object_id": "1993-036BWP",
        "meta_epoch": "2025-12-02T07:34:18.151104",
        "meta_mean_motion": 14.58589191,
        "meta_eccentricity": 0.00187807,
        "meta_inclination": 74.0355,
        "meta_ra_of_asc_node": 94.5842,
        "meta_arg_of_pericenter": 246.5096,
        "meta_mean_anomaly": 113.4096,
        "meta_ephemeris_type": 0,
        "meta_classification_type": "U",
        "meta_norad_cat_id": 40810,
        "meta_element_set_no": 999,
        "meta_rev_at_epoch": 61531,
        "meta_bstar": 0.001131408,
        "meta_mean_motion_dot": 5.252e-05,
        "meta_mean_motion_ddot": 0,
        "tle_line1": "1 40810U 93036BWP 25336.31548786  .00005252  00000+0  11314-2 0  9990",
        "tle_line2": "2 40810  74.0355  94.5842 0018780 246.5096 113.4096 14.58589191615318"
      },
      "geometry": {
        "type": "Point",
        "coordinates": [
          -107.15040883936464,
          32.372138121249804
        ]
      }
    },
    {
      "type": "Feature",
      "properties": {
        "norad_id": 46271,
        "name": "COSMOS 2251 DEB",
        "group": "cosmos-2251-debris",
        "lat": 35.15989575093668,
        "lon": -104.94638649076366,
        "alt_km": 706.3865890526831,
        "timestamp": "2025-12-08T05:48:09.432062+00:00",
        "meta_object_name": "COSMOS 2251 DEB",
        "meta_object_id": "1993-036BWT",
        "meta_epoch": "2025-12-02T01:54:44.684640",
        "meta_mean_motion": 14.51374966,
        "meta_eccentricity": 0.00407046,
        "meta_inclination": 74.046,
        "meta_ra_of_asc_node": 98.2636,
        "meta_arg_of_pericenter": 221.9387,
        "meta_mean_anomaly": 137.8656,
        "meta_ephemeris_type": 0,
        "meta_classification_type": "U",
        "meta_norad_cat_id": 46271,
        "meta_element_set_no": 999,
        "meta_rev_at_epoch": 84487,
        "meta_bstar": 0.0004698569,
        "meta_mean_motion_dot": 1.865e-05,
        "meta_mean_motion_ddot": 0,
        "tle_line1": "1 46271U 93036BWT 25336.07968385  .00001865  00000+0  46986-3 0  9991",
        "tle_line2": "2 46271  74.0460  98.2636 0040704 221.9387 137.8656 14.51374966844877"
      },
      "geometry": {
        "type": "Point",
        "coordinates": [
          -104.94638649076366,
          35.15989575093668
        ]
      }
    }
  ]
}